{"type": "FeatureCollection", "features": [ {"type": "Feature", "properties": {"norad_id": 30758, "name": "FENGYUN 1C DEB", "group": "fengyun-1c-debris", "lat": -21.526683211289438, "lon": 104.3809341315986, "alt_km": 818.6605738634189, "timestamp": "2025-12-08T03:50:07.275723+00:00", "meta": {"OBJECT_NAME": "FENGYUN 1C DEB", "OBJECT_ID": "1999-025ATU", "EPOCH": "2025-12-06T14:43:39.862848", "MEAN_MOTION": 14.17072072, "ECCENTRICITY": 0.00385719, "INCLINATION": 99.0187, "RA_OF_ASC_NODE": 99.2217, "ARG_OF_PERICENTER": 21.236, "MEAN_ANOMALY": 354.0745, "EPHEMERIS_TYPE": 0, "CLASSIFICATION_TYPE": "U", "NORAD_CAT_ID": 30758, "ELEMENT_SET_NO": 999, "REV_AT_EPOCH": 96404, "BSTAR": 0.0019521116, "MEAN_MOTION_DOT": 3.913e-05, "MEAN_MOTION_DDOT": 0}, "tle": {"line1": "1 30758U 99025ATU 25340.61365582  .00003913  00000+0  19521-2 0  9993", "line2": "2 30758  99.0187  99.2217 0038571  21.2360 354.0745 14.17072072964049"}}, "geometry": {"type": "Point", "coordinates": [104.3809341315986, -21.526683211289438]}}, {"type": "Feature", "properties": {"norad_id": 30759, "name": "FENGYUN 1C DEB", "group": "fengyun-1c-debris", "lat": 37.03281430175201, "lon": -83.49868494782802, "alt_km": 703.2875701061885, "timestamp": "2025-12-08T03:50:07.275733+00:00", "meta": {"OBJECT_NAME": "FENGYUN 1C DEB", "OBJECT_ID": "1999-025ATV", "EPOCH": "2025-12-07T05:51:21.593952", "MEAN_MOTION": 14.54330991, "ECCENTRICITY": 0.00094478, "INCLINATION": 99.2571, "RA_OF_ASC_NODE": 88.4211, "ARG_OF_PERICENTER": 180.5415, "MEAN_ANOMALY": 209.7253, "EPHEMERIS_TYPE": 0, "CLASSIFICATION_TYPE": "U", "NORAD_CAT_ID": 30759, "ELEMENT_SET_NO": 999, "REV_AT_EPOCH": 97575, "BSTAR": 0.0043183892, "MEAN_MOTION_DOT": 0.00018339, "MEAN_MOTION_DDOT": 0}, "tle": {"line1": "1 30759U 99025ATV 25341.24399993  .00018339  00000+0  43184-2 0  9997", "line2": "2 30759  99.2571  88.4211 0009447 180.5415 209.7253 14.54330991975751"}}, "geometry": {"type": "Point", "coordinates": [-83.49868494782802, 37.03281430175201]}}, {"type": "Feature", "properties": {"norad_id": 30760, "name": "FENGYUN 1C DEB", "group": "fengyun-1c-debris", "lat": -81.10884183081042, "lon": 62.05857988676008, "alt_km": 879.9659088130493, "timestamp": "2025-12-08T03:50:07.275743+00:00", "meta": {"OBJECT_NAME": "FENGYUN 1C DEB", "OBJECT_ID": "1999-025ATW", "EPOCH": "2025-12-07T06:02:21.079968", "MEAN_MOTION": 14.05174211, "ECCENTRICITY": 0.00531394, "INCLINATION": 98.8222, "RA_OF_ASC_NODE": 338.0821, "ARG_OF_PERICENTER": 359.018, "MEAN_ANOMALY": 1.0875, "EPHEMERIS_TYPE": 0, "CLASSIFICATION_TYPE": "U", "NORAD_CAT_ID": 30760, "ELEMENT_SET_NO": 999, "REV_AT_EPOCH": 96145, "BSTAR": 0.00032183812, "MEAN_MOTION_DOT": 4.83e-06, "MEAN_MOTION_DDOT": 0}, "tle": {"line1": "1 30760U 99025ATW 25341.25163287  .00000483  00000+0  32184-3 0  9995", "line2": "2 30760  98.8222 338.0821 0053139 359.0180   1.0875 14.05174211961453"}}, "geometry": {"type": "Point", "coordinates": [62.05857988676008, -81.10884183081042]}}, {"type": "Feature", "properties": {"norad_id": 30761, "name": "FENGYUN 1C DEB", "group": "fengyun-1c-debris", "lat": -55.57032589973818, "lon": 74.75282478124748, "alt_km": 779.9852546253724, "timestamp": "2025-12-08T03:50:07.275753+00:00", "meta": {"OBJECT_NAME": "FENGYUN 1C DEB", "OBJECT_ID": "1999-025ATX", "EPOCH": "2025-12-07T01:38:29.164704", "MEAN_MOTION": 14.35716854, "ECCENTRICITY": 0.00849051, "INCLINATION": 98.9654, "RA_OF_ASC_NODE": 266.9336, "ARG_OF_PERICENTER": 330.5483, "MEAN_ANOMALY": 29.0931, "EPHEMERIS_TYPE": 0, "CLASSIFICATION_TYPE": "U", "NORAD_CAT_ID": 30761, "ELEMENT_SET_NO": 999, "REV_AT_EPOCH": 97660, "BSTAR": 0.0018519918, "MEAN_MOTION_DOT": 5.53e-05, "MEAN_MOTION_DDOT": 0}, "tle": {"line1": "1 30761U 99025ATX 25341.06839311  .00005530  00000+0  18520-2 0  9998", "line2": "2 30761  98.9654 266.9336 0084905 330.5483  29.0931 14.35716854976603"}}, "geometry": {"type": "Point", "coordinates": [74.75282478124748, -55.57032589973818]}}, {"type": "Feature", "properties": {"norad_id": 30762, "name": "FENGYUN 1C DEB", "group": "fengyun-1c-debris", "lat": -48.06338660741903, "lon": -16.88926783967671, "alt_km": 763.3747493592409, "timestamp": "2025-12-08T03:50:07.275763+00:00", "meta": {"OBJECT_NAME": "FENGYUN 1C DEB", "OBJECT_ID": "1999-025ATY", "EPOCH": "2025-12-07T05:49:22.691136", "MEAN_MOTION": 13.98076793, "ECCENTRICITY": 0.01979519, "INCLINATION": 98.8746, "RA_OF_ASC_NODE": 332.2082, "ARG_OF_PERICENTER": 310.3354, "MEAN_ANOMALY": 67.0527, "EPHEMERIS_TYPE": 0, "CLASSIFICATION_TYPE": "U", "NORAD_CAT_ID": 30762, "ELEMENT_SET_NO": 999, "REV_AT_EPOCH": 95561, "BSTAR": 0.00092105264, "MEAN_MOTION_DOT": 1.503e-05, "MEAN_MOTION_DDOT": 0}, "tle": {"line1": "1 30762U 99025ATY 25341.24262374  .00001503  00000+0  92105-3 0  9996", "line2": "2 30762  98.8746 332.2082 0197951 310.3354  67.0527 13.98076793955619"}}, "geometry": {"type": "Point", "coordinates": [-16.88926783967671, -48.06338660741903]}}, {"type": "Feature", "properties": {"norad_id": 30763, "name": "FENGYUN 1C DEB", "group": "fengyun-1c-debris", "lat": -51.63151811341356, "lon": -138.21966984812698, "alt_km": 687.0997086986908, "timestamp": "2025-12-08T03:50:07.275773+00:00", "meta": {"OBJECT_NAME": "FENGYUN 1C DEB", "OBJECT_ID": "1999-025ATZ", "EPOCH": "2025-12-07T03:53:34.999296", "MEAN_MOTION": 14.60761266, "ECCENTRICITY": 0.00226064, "INCLINATION": 98.8926, "RA_OF_ASC_NODE": 52.1159, "ARG_OF_PERICENTER": 285.3093, "MEAN_ANOMALY": 104.1728, "EPHEMERIS_TYPE": 0, "CLASSIFICATION_TYPE": "U", "NORAD_CAT_ID": 30763, "ELEMENT_SET_NO": 999, "REV_AT_EPOCH": 97063, "BSTAR": 0.0065049859, "MEAN_MOTION_DOT": 0.00031946, "MEAN_MOTION_DDOT": 0}, "tle": {"line1": "1 30763U 99025ATZ 25341.16221064  .00031946  00000+0  65050-2 0  9991", "line2": "2 30763  98.8926  52.1159 0022606 285.3093 104.1728 14.60761266970639"}}, "geometry": {"type": "Point", "coordinates": [-138.21966984812698, -51.63151811341356]}}, {"type": "Feature", "properties": {"norad_id": 30764, "name": "FENGYUN 1C DEB", "group": "fengyun-1c-debris", "lat": 62.53423471539558, "lon": -65.2884373015193, "alt_km": 500.8178445036883, "timestamp": "2025-12-08T03:50:07.275783+00:00", "meta": {"OBJECT_NAME": "FENGYUN 1C DEB", "OBJECT_ID": "1999-025AUA", "EPOCH": "2025-12-07T03:59:17.316096", "MEAN_MOTION": 15.28594903, "ECCENTRICITY": 0.00759848, "INCLINATION": 98.7783, "RA_OF_ASC_NODE": 310.8356, "ARG_OF_PERICENTER": 189.139, "MEAN_ANOMALY": 170.8468, "EPHEMERIS_TYPE": 0, "CLASSIFICATION_TYPE": "U", "NORAD_CAT_ID": 30764, "ELEMENT_SET_NO": 999, "REV_AT_EPOCH": 1137, "BSTAR": 0.0014905, "MEAN_MOTION_DOT": 0.00045337, "MEAN_MOTION_DDOT": 0}, "tle": {"line1": "1 30764U 99025AUA 25341.16617264  .00045337  00000+0  14905-2 0  9995", "line2": "2 30764  98.7783 310.8356 0075984 189.1390 170.8468 15.28594903 11376"}}, "geometry": {"type": "Point", "coordinates": [-65.2884373015193, 62.53423471539558]}}, {"type": "Feature", "properties": {"norad_id": 30765, "name": "FENGYUN 1C DEB", "group": "fengyun-1c-debris", "lat": -50.02191653253378, "lon": -162.403616161082, "alt_km": 801.6749623233864, "timestamp": "2025-12-08T03:50:07.275793+00:00", "meta": {"OBJECT_NAME": "FENGYUN 1C DEB", "OBJECT_ID": "1999-025AUB", "EPOCH": "2025-12-06T14:08:48.544800", "MEAN_MOTION": 14.14682144, "ECCENTRICITY": 0.00679718, "INCLINATION": 98.7882, "RA_OF_ASC_NODE": 26.6828, "ARG_OF_PERICENTER": 226.5628, "MEAN_ANOMALY": 290.9332, "EPHEMERIS_TYPE": 0, "CLASSIFICATION_TYPE": "U", "NORAD_CAT_ID": 30765, "ELEMENT_SET_NO": 999, "REV_AT_EPOCH": 96735, "BSTAR": 0.0015876068, "MEAN_MOTION_DOT": 3.08e-05, "MEAN_MOTION_DDOT": 0}, "tle": {"line1": "1 30765U 99025AUB 25340.58945075  .00003080  00000+0  15876-2 0  9992", "line2": "2 30765  98.7882  26.6828 0067971 226.5628 290.9332 14.14682144967351"}}, "geometry": {"type": "Point", "coordinates": [-162.403616161082, -50.02191653253378]}}, {"type": "Feature", "properties": {"norad_id": 30766, "name": "FENGYUN 1C DEB", "group": "fengyun-1c-debris", "lat": -14.063081892145798, "lon": 160.52747746124678, "alt_km": 882.6621462269022, "timestamp": "2025-12-08T03:50:07.275803+00:00", "meta": {"OBJECT_NAME": "FENGYUN 1C DEB", "OBJECT_ID": "1999-025AUC", "EPOCH": "2025-12-07T06:34:03.724608", "MEAN_MOTION": 14.095092, "ECCENTRICITY": 0.00838104, "INCLINATION": 98.6723, "RA_OF_ASC_NODE": 341.865, "ARG_OF_PERICENTER": 89.8139, "MEAN_ANOMALY": 289.3417, "EPHEMERIS_TYPE": 0, "CLASSIFICATION_TYPE": "U", "NORAD_CAT_ID": 30766, "ELEMENT_SET_NO": 999, "REV_AT_EPOCH": 62720, "BSTAR": 0.0010779116, "MEAN_MOTION_DOT": 1.905e-05, "MEAN_MOTION_DDOT": 0}, "tle": {"line1": "1 30766U 99025AUC 25341.27365422  .00001905  00000+0  10779-2 0  9993", "line2": "2 30766  98.6723 341.8650 0083810  89.8139 289.3417 14.09509200627205"}}, "geometry": {"type": "Point", "coordinates": [160.52747746124678, -14.063081892145798]}}, {"type": "Feature", "properties": {"norad_id": 30768, "name": "FENGYUN 1C DEB", "group": "fengyun-1c-debris", "lat": -0.5625498230984352, "lon": -108.27144035552865, "alt_km": 728.5150536978717, "timestamp": "2025-12-08T03:50:07.275813+00:00", "meta": {"OBJECT_NAME": "FENGYUN 1C DEB", "OBJECT_ID": "1999-025AUE", "EPOCH": "2025-12-06T11:47:20.141376", "MEAN_MOTION": 14.47747515, "ECCENTRICITY": 0.00257754, "INCLINATION": 98.6191, "RA_OF_ASC_NODE": 70.1138, "ARG_OF_PERICENTER": 119.0372, "MEAN_ANOMALY": 9.4642, "EPHEMERIS_TYPE": 0, "CLASSIFICATION_TYPE": "U", "NORAD_CAT_ID": 30768, "ELEMENT_SET_NO": 999, "REV_AT_EPOCH": 97780, "BSTAR": 0.0040977977, "MEAN_MOTION_DOT": 0.00015186, "MEAN_MOTION_DDOT": 0}, "tle": {"line1": "1 30768U 99025AUE 25340.49120534  .00015186  00000+0  40978-2 0  9991", "line2": "2 30768  98.6191  70.1138 0025775 119.0372   9.4642 14.47747515977800"}}, "geometry": {"type": "Point", "coordinates": [-108.27144035552865, -0.5625498230984352]}}]}